[{"OBJECT_NAME":"UTMN 2 (RS27S)","OBJECT_ID":"2023-091AP","EPOCH":"2026-03-09T23:09:07.917408","MEAN_MOTION":15.29495965,"ECCENTRICITY":0.00097379,"INCLINATION":97.5194,"RA_OF_ASC_NODE":134.949,"ARG_OF_PERICENTER":76.0788,"MEAN_ANOMALY":284.1534,"EPHEMERIS_TYPE":0,"CLASSIFICATION_TYPE":"U","NORAD_CAT_ID":57203,"ELEMENT_SET_NO":999,"REV_AT_EPOCH":14936,"BSTAR":0.00056135701,"MEAN_MOTION_DOT":0.00016013,"MEAN_MOTION_DDOT":0},{"OBJECT_NAME":"STARLINK-32032","OBJECT_ID":"2024-113U","EPOCH":"2026-03-09T22:46:02.838144","MEAN_MOTION":15.30178544,"ECCENTRICITY":8.44e-5,"INCLINATION":53.162,"RA_OF_ASC_NODE":357.6245,"ARG_OF_PERICENTER":97.1502,"MEAN_ANOMALY":262.9594,"EPHEMERIS_TYPE":0,"CLASSIFICATION_TYPE":"U","NORAD_CAT_ID":60077,"ELEMENT_SET_NO":999,"REV_AT_EPOCH":9727,"BSTAR":0.00011905939,"MEAN_MOTION_DOT":3.167e-5,"MEAN_MOTION_DDOT":0}]
